{"type": "FeatureCollection", "features": [ {"type": "Feature", "properties": {"norad_id": 36402, "name": "COSMOS 2460 (732)", "group": "gnss", "lat": 51.340078602502814, "lon": -4.9013330559204995, "alt_km": 19128.45675189301, "timestamp": "2025-12-22T18:58:53.676072+00:00", "meta": {"OBJECT_NAME": "COSMOS 2460 (732)", "OBJECT_ID": "2010-007C", "EPOCH": "2025-12-21T10:11:10.908384", "MEAN_MOTION": 2.13106318, "ECCENTRICITY": 0.0002509, "INCLINATION": 65.525, "RA_OF_ASC_NODE": 320.48, "ARG_OF_PERICENTER": 281.7872, "MEAN_ANOMALY": 168.9418, "EPHEMERIS_TYPE": 0, "CLASSIFICATION_TYPE": "U", "NORAD_CAT_ID": 36402, "ELEMENT_SET_NO": 999, "REV_AT_EPOCH": 12294, "BSTAR": 0, "MEAN_MOTION_DOT": -4.6e-07, "MEAN_MOTION_DDOT": 0}, "tle": {"line1": "1 36402U 10007C   25355.42443181 -.00000046  00000+0  00000+0 0  9999", "line2": "2 36402  65.5250 320.4800 0002509 281.7872 168.9418  2.13106318122948"}}, "geometry": {"type": "Point", "coordinates": [-4.9013330559204995, 51.340078602502814]}}, {"type": "Feature", "properties": {"norad_id": 36585, "name": "GPS BIIF-1  (PRN 25)", "group": "gnss", "lat": -45.278833721196136, "lon": 82.24301400356526, "alt_km": 20523.62153472891, "timestamp": "2025-12-22T18:58:53.676085+00:00", "meta": {"OBJECT_NAME": "GPS BIIF-1  (PRN 25)", "OBJECT_ID": "2010-022A", "EPOCH": "2025-12-22T05:20:22.074144", "MEAN_MOTION": 2.00553706, "ECCENTRICITY": 0.01264918, "INCLINATION": 54.2987, "RA_OF_ASC_NODE": 215.6915, "ARG_OF_PERICENTER": 65.1953, "MEAN_ANOMALY": 125.3997, "EPHEMERIS_TYPE": 0, "CLASSIFICATION_TYPE": "U", "NORAD_CAT_ID": 36585, "ELEMENT_SET_NO": 999, "REV_AT_EPOCH": 11404, "BSTAR": 0, "MEAN_MOTION_DOT": 7.4e-07, "MEAN_MOTION_DDOT": 0}, "tle": {"line1": "1 36585U 10022A   25356.22247771  .00000074  00000+0  00000+0 0  9994", "line2": "2 36585  54.2987 215.6915 0126491  65.1953 125.3997  2.00553706114049"}}, "geometry": {"type": "Point", "coordinates": [82.24301400356526, -45.278833721196136]}}, {"type": "Feature", "properties": {"norad_id": 36828, "name": "BEIDOU-2 IGSO-1 (C06)", "group": "gnss", "lat": -31.170287183621358, "lon": 138.71212423485431, "alt_km": 35843.40896739293, "timestamp": "2025-12-22T18:58:53.676097+00:00", "meta": {"OBJECT_NAME": "BEIDOU-2 IGSO-1 (C06)", "OBJECT_ID": "2010-036A", "EPOCH": "2025-12-20T21:47:26.739168", "MEAN_MOTION": 1.00282395, "ECCENTRICITY": 0.0051798, "INCLINATION": 54.2882, "RA_OF_ASC_NODE": 164.5739, "ARG_OF_PERICENTER": 215.2932, "MEAN_ANOMALY": 144.6604, "EPHEMERIS_TYPE": 0, "CLASSIFICATION_TYPE": "U", "NORAD_CAT_ID": 36828, "ELEMENT_SET_NO": 999, "REV_AT_EPOCH": 5631, "BSTAR": 0, "MEAN_MOTION_DOT": -5.5e-07, "MEAN_MOTION_DDOT": 0}, "tle": {"line1": "1 36828U 10036A   25354.90794837 -.00000055  00000+0  00000+0 0  9992", "line2": "2 36828  54.2882 164.5739 0051798 215.2932 144.6604  1.00282395 56317"}}, "geometry": {"type": "Point", "coordinates": [138.71212423485431, -31.170287183621358]}}, {"type": "Feature", "properties": {"norad_id": 37210, "name": "BEIDOU-2 G4 (C04)", "group": "gnss", "lat": 3.0850585324594277, "lon": 176.30145659133154, "alt_km": 35783.3094825186, "timestamp": "2025-12-22T18:58:53.676110+00:00", "meta": {"OBJECT_NAME": "BEIDOU-2 G4 (C04)", "OBJECT_ID": "2010-057A", "EPOCH": "2025-12-22T05:22:00.430176", "MEAN_MOTION": 1.00271926, "ECCENTRICITY": 0.00104047, "INCLINATION": 3.2067, "RA_OF_ASC_NODE": 69.9031, "ARG_OF_PERICENTER": 193.2765, "MEAN_ANOMALY": 68.4387, "EPHEMERIS_TYPE": 0, "CLASSIFICATION_TYPE": "U", "NORAD_CAT_ID": 37210, "ELEMENT_SET_NO": 999, "REV_AT_EPOCH": 5551, "BSTAR": 0, "MEAN_MOTION_DOT": -9.1e-07, "MEAN_MOTION_DDOT": 0}, "tle": {"line1": "1 37210U 10057A   25356.22361609 -.00000091  00000+0  00000+0 0  9995", "line2": "2 37210   3.2067  69.9031 0010404 193.2765  68.4387  1.00271926 55513"}}, "geometry": {"type": "Point", "coordinates": [176.30145659133154, 3.0850585324594277]}}, {"type": "Feature", "properties": {"norad_id": 37256, "name": "BEIDOU-2 IGSO-2 (C07)", "group": "gnss", "lat": -21.908705250413732, "lon": 115.3235062370244, "alt_km": 35582.63965297973, "timestamp": "2025-12-22T18:58:53.676123+00:00", "meta": {"OBJECT_NAME": "BEIDOU-2 IGSO-2 (C07)", "OBJECT_ID": "2010-068A", "EPOCH": "2025-12-21T17:07:55.147872", "MEAN_MOTION": 1.00283664, "ECCENTRICITY": 0.00485428, "INCLINATION": 47.8695, "RA_OF_ASC_NODE": 274.0391, "ARG_OF_PERICENTER": 216.3693, "MEAN_ANOMALY": 325.0635, "EPHEMERIS_TYPE": 0, "CLASSIFICATION_TYPE": "U", "NORAD_CAT_ID": 37256, "ELEMENT_SET_NO": 999, "REV_AT_EPOCH": 5501, "BSTAR": 0, "MEAN_MOTION_DOT": -1.86e-06, "MEAN_MOTION_DDOT": 0}, "tle": {"line1": "1 37256U 10068A   25355.71383273 -.00000186  00000+0  00000+0 0  9996", "line2": "2 37256  47.8695 274.0391 0048542 216.3693 325.0635  1.00283664 55018"}}, "geometry": {"type": "Point", "coordinates": [115.3235062370244, -21.908705250413732]}}, {"type": "Feature", "properties": {"norad_id": 37384, "name": "BEIDOU-2 IGSO-3 (C08)", "group": "gnss", "lat": 60.937288841725895, "lon": 113.75902939408775, "alt_km": 35822.89530412939, "timestamp": "2025-12-22T18:58:53.676135+00:00", "meta": {"OBJECT_NAME": "BEIDOU-2 IGSO-3 (C08)", "OBJECT_ID": "2011-013A", "EPOCH": "2025-12-21T13:47:18.522816", "MEAN_MOTION": 1.00268792, "ECCENTRICITY": 0.00353792, "INCLINATION": 62.1546, "RA_OF_ASC_NODE": 41.8324, "ARG_OF_PERICENTER": 187.6182, "MEAN_ANOMALY": 175.1134, "EPHEMERIS_TYPE": 0, "CLASSIFICATION_TYPE": "U", "NORAD_CAT_ID": 37384, "ELEMENT_SET_NO": 999, "REV_AT_EPOCH": 5388, "BSTAR": 0, "MEAN_MOTION_DOT": -1.61e-06, "MEAN_MOTION_DDOT": 0}, "tle": {"line1": "1 37384U 11013A   25355.57451994 -.00000161  00000+0  00000+0 0  9992", "line2": "2 37384  62.1546  41.8324 0035379 187.6182 175.1134  1.00268792 53884"}}, "geometry": {"type": "Point", "coordinates": [113.75902939408775, 60.937288841725895]}}, {"type": "Feature", "properties": {"norad_id": 37605, "name": "GSAT-8 (GAGAN/PRN 127)", "group": "gnss", "lat": -0.3453837677349544, "lon": 71.4152783782736, "alt_km": 35821.96670005916, "timestamp": "2025-12-22T18:58:53.676150+00:00", "meta": {"OBJECT_NAME": "GSAT-8 (GAGAN/PRN 127)", "OBJECT_ID": "2011-022A", "EPOCH": "2025-12-22T03:09:20.634912", "MEAN_MOTION": 1.00270864, "ECCENTRICITY": 0.00088636, "INCLINATION": 1.6725, "RA_OF_ASC_NODE": 84.0981, "ARG_OF_PERICENTER": 185.6331, "MEAN_ANOMALY": 283.6166, "EPHEMERIS_TYPE": 0, "CLASSIFICATION_TYPE": "U", "NORAD_CAT_ID": 37605, "ELEMENT_SET_NO": 999, "REV_AT_EPOCH": 5144, "BSTAR": 0, "MEAN_MOTION_DOT": 1.06e-06, "MEAN_MOTION_DDOT": 0}, "tle": {"line1": "1 37605U 11022A   25356.13148883  .00000106  00000+0  00000+0 0  9999", "line2": "2 37605   1.6725  84.0981 0008863 185.6331 283.6166  1.00270864 51440"}}, "geometry": {"type": "Point", "coordinates": [71.4152783782736, -0.3453837677349544]}}, {"type": "Feature", "properties": {"norad_id": 37763, "name": "BEIDOU-2 IGSO-4 (C09)", "group": "gnss", "lat": -41.58551669062443, "lon": 128.02755861086675, "alt_km": 35621.024721106405, "timestamp": "2025-12-22T18:58:53.676164+00:00", "meta": {"OBJECT_NAME": "BEIDOU-2 IGSO-4 (C09)", "OBJECT_ID": "2011-038A", "EPOCH": "2025-12-21T10:06:26.864064", "MEAN_MOTION": 1.00280083, "ECCENTRICITY": 0.01491557, "INCLINATION": 54.5854, "RA_OF_ASC_NODE": 167.2693, "ARG_OF_PERICENTER": 230.0944, "MEAN_ANOMALY": 299.1265, "EPHEMERIS_TYPE": 0, "CLASSIFICATION_TYPE": "U", "NORAD_CAT_ID": 37763, "ELEMENT_SET_NO": 999, "REV_AT_EPOCH": 5286, "BSTAR": 0, "MEAN_MOTION_DOT": 5.9e-07, "MEAN_MOTION_DDOT": 0}, "tle": {"line1": "1 37763U 11038A   25355.42114426  .00000059  00000+0  00000+0 0  9995", "line2": "2 37763  54.5854 167.2693 0149155 230.0944 299.1265  1.00280083 52867"}}, "geometry": {"type": "Point", "coordinates": [128.02755861086675, -41.58551669062443]}}, {"type": "Feature", "properties": {"norad_id": 37846, "name": "GSAT0101 (GALILEO-PFM)", "group": "gnss", "lat": -40.20387188105301, "lon": -46.706287479468934, "alt_km": 23217.444134238758, "timestamp": "2025-12-22T18:58:53.676178+00:00", "meta": {"OBJECT_NAME": "GSAT0101 (GALILEO-PFM)", "OBJECT_ID": "2011-060A", "EPOCH": "2025-12-21T02:42:49.222944", "MEAN_MOTION": 1.70475776, "ECCENTRICITY": 0.00032099, "INCLINATION": 57.0509, "RA_OF_ASC_NODE": 346.5929, "ARG_OF_PERICENTER": 319.8352, "MEAN_ANOMALY": 40.1502, "EPHEMERIS_TYPE": 0, "CLASSIFICATION_TYPE": "U", "NORAD_CAT_ID": 37846, "ELEMENT_SET_NO": 999, "REV_AT_EPOCH": 8808, "BSTAR": 0, "MEAN_MOTION_DOT": -6.8e-07, "MEAN_MOTION_DDOT": 0}, "tle": {"line1": "1 37846U 11060A   25355.11306971 -.00000068  00000+0  00000+0 0  9997", "line2": "2 37846  57.0509 346.5929 0003209 319.8352  40.1502  1.70475776 88089"}}, "geometry": {"type": "Point", "coordinates": [-46.706287479468934, -40.20387188105301]}}, {"type": "Feature", "properties": {"norad_id": 37847, "name": "GSAT0102 (GALILEO-FM2)", "group": "gnss", "lat": -4.0151293967681, "lon": -16.07307508401073, "alt_km": 23211.529800995944, "timestamp": "2025-12-22T18:58:53.676190+00:00", "meta": {"OBJECT_NAME": "GSAT0102 (GALILEO-FM2)", "OBJECT_ID": "2011-060B", "EPOCH": "2025-12-21T21:59:38.834016", "MEAN_MOTION": 1.70475998, "ECCENTRICITY": 0.00051487, "INCLINATION": 57.0514, "RA_OF_ASC_NODE": 346.5715, "ARG_OF_PERICENTER": 312.846, "MEAN_ANOMALY": 225.6479, "EPHEMERIS_TYPE": 0, "CLASSIFICATION_TYPE": "U", "NORAD_CAT_ID": 37847, "ELEMENT_SET_NO": 999, "REV_AT_EPOCH": 8810, "BSTAR": 0, "MEAN_MOTION_DOT": -6.6e-07, "MEAN_MOTION_DDOT": 0}, "tle": {"line1": "1 37847U 11060B   25355.91642169 -.00000066  00000+0  00000+0 0  9996", "line2": "2 37847  57.0514 346.5715 0005148 312.8460 225.6479  1.70475998 88108"}}, "geometry": {"type": "Point", "coordinates": [-16.07307508401073, -4.0151293967681]}}]}